CTC1_L_00555001-01
1 42321U 24305FX  26037.47809028  .00000000  00000+0  00000-0 0  9991
2 42321  97.4000   0.0000 0000000   0.0000   0.0000 15.17631817    15
CTC1_L_00555002-01
1 42322U 26877PH  26037.47809028  .00000000  00000+0  00000-0 0  9998
2 42322  97.4000  12.0000 0000000   0.0000  48.0000 15.17631817    11
CTC1_L_00555003-01
1 42323U 22157YO  26037.47809028  .00000000  00000+0  00000-0 0  9996
2 42323  97.4000  24.0000 0000000   0.0000  96.0000 15.17631817    18
CTC1_L_00555004-01
1 42324U 24066IX  26037.47809028  .00000000  00000+0  00000-0 0  9998
2 42324  97.4000  36.0000 0000000   0.0000 144.0000 15.17631817    16
CTC1_L_00555005-01
1 42325U 23061YD  26037.47809028  .00000000  00000+0  00000-0 0  9993
2 42325  97.4000  48.0000 0000000   0.0000 192.0000 15.17631817    13
CTC1_L_00555006-01
1 42326U 23648AN  26037.47809028  .00000000  00000+0  00000-0 0  9995
2 42326  97.4000  60.0000 0000000   0.0000 240.0000 15.17631817    12
CTC1_L_00555007-01
1 42327U 22073NJ  26037.47809028  .00000000  00000+0  00000-0 0  9997
2 42327  97.4000  72.0000 0000000   0.0000 288.0000 15.17631817    18
CTC1_L_00555008-01
1 42328U 22004DI  26037.47809028  .00000000  00000+0  00000-0 0  9992
2 42328  97.4000  84.0000 0000000   0.0000 336.0000 15.17631817    16
CTC1_L_00555009-01
1 42329U 24836RF  26037.47809028  .00000000  00000+0  00000-0 0  9998
2 42329  97.4000  96.0000 0000000   0.0000  24.0000 15.17631817    14
CTC1_L_00555010-01
1 42330U 25602DO  26037.47809028  .00000000  00000+0  00000-0 0  9992
2 42330  97.4000 108.0000 0000000   0.0000  72.0000 15.17631817    13
CTC1_L_00555011-01
1 42331U 22524X   26037.47809028  .00000000  00000+0  00000-0 0  9993
2 42331  97.4000 120.0000 0000000   0.0000 120.0000 15.17631817    12
CTC1_L_00555012-01
1 42332U 25940DP  26037.47809028  .00000000  00000+0  00000-0 0  9999
2 42332  97.4000 132.0000 0000000   0.0000 168.0000 15.17631817    18
CTC1_L_00555013-01
1 42333U 24468IG  26037.47809028  .00000000  00000+0  00000-0 0  9994
2 42333  97.4000 144.0000 0000000   0.0000 216.0000 15.17631817    16
CTC1_L_00555014-01
1 42334U 25213GP  26037.47809028  .00000000  00000+0  00000-0 0  9994
2 42334  97.4000 156.0000 0000000   0.0000 264.0000 15.17631817    13
CTC1_L_00555015-01
1 42335U 23129XD  26037.47809028  .00000000  00000+0  00000-0 0  9999
2 42335  97.4000 168.0000 0000000   0.0000 312.0000 15.17631817    11
CTC1_L_00555016-01
1 42336U 26816GL  26037.47809028  .00000000  00000+0  00000-0 0  9996
2 42336  97.4000 180.0000 0000000   0.0000   0.0000 15.17631817    10
CTC1_L_00555017-01
1 42337U 25756GN  26037.47809028  .00000000  00000+0  00000-0 0  9999
2 42337  97.4000 192.0000 0000000   0.0000  48.0000 15.17631817    16
CTC1_L_00555018-01
1 42338U 26004UY  26037.47809028  .00000000  00000+0  00000-0 0  9997
2 42338  97.4000 204.0000 0000000   0.0000  96.0000 15.17631817    14
CTC1_L_00555019-01
1 42339U 23431BX  26037.47809028  .00000000  00000+0  00000-0 0  9999
2 42339  97.4000 216.0000 0000000   0.0000 144.0000 15.17631817    12
CTC1_L_00555020-01
1 42340U 22977FC  26037.47809028  .00000000  00000+0  00000-0 0  9995
2 42340  97.4000 228.0000 0000000   0.0000 192.0000 15.17631817    10
CTC1_L_00555021-01
1 42341U 24420NJ  26037.47809028  .00000000  00000+0  00000-0 0  9991
2 42341  97.4000 240.0000 0000000   0.0000 240.0000 15.17631817    19
CTC1_L_00555022-01
1 42342U 25147DK  26037.47809028  .00000000  00000+0  00000-0 0  9999
2 42342  97.4000 252.0000 0000000   0.0000 288.0000 15.17631817    15
CTC1_L_00555023-01
1 42343U 22676TO  26037.47809028  .00000000  00000+0  00000-0 0  9994
2 42343  97.4000 264.0000 0000000   0.0000 336.0000 15.17631817    13
CTC1_L_00555024-01
1 42344U 24682KA  26037.47809028  .00000000  00000+0  00000-0 0  9994
2 42344  97.4000 276.0000 0000000   0.0000  24.0000 15.17631817    11
CTC1_L_00555025-01
1 42345U 24491UE  26037.47809028  .00000000  00000+0  00000-0 0  9993
2 42345  97.4000 288.0000 0000000   0.0000  72.0000 15.17631817    18
CTC1_L_00555026-01
1 42346U 24297CO  26037.47809028  .00000000  00000+0  00000-0 0  9998
2 42346  97.4000 300.0000 0000000   0.0000 120.0000 15.17631817    18
CTC1_L_00555027-01
1 42347U 24608VD  26037.47809028  .00000000  00000+0  00000-0 0  9995
2 42347  97.4000 312.0000 0000000   0.0000 168.0000 15.17631817    14
CTC1_L_00555028-01
1 42348U 23586BW  26037.47809028  .00000000  00000+0  00000-0 0  9990
2 42348  97.4000 324.0000 0000000   0.0000 216.0000 15.17631817    12
CTC1_L_00555029-01
1 42349U 22488BA  26037.47809028  .00000000  00000+0  00000-0 0  9991
2 42349  97.4000 336.0000 0000000   0.0000 264.0000 15.17631817    19
CTC1_L_00555030-01
1 42350U 26059ZY  26037.47809028  .00000000  00000+0  00000-0 0  9991
2 42350  97.4000 348.0000 0000000   0.0000 312.0000 15.17631817    18
